C/2020 O2 (Amaral),h,08/28.4340/2021,71.7614,256.7778,10.2964,1.001393,4.862297,2000,8.0,3.2
# From MPEC 2021-BE3
C/2020 P1 (NEOWISE),h,10/20.5175/2020,45.1915,53.4807,8.8922,1.000331,0.340867,2000,14.0,3.2
# From MPEC 2023-O39
C/2020 P3 (ATLAS),h,04/21.5299/2021,61.8893,19.4657,82.2825,1.001815,6.812671,2000,6.0,4.0
# From MPEC 2022-PB4
C/2020 PV6 (PANSTARRS),e,128.2207,329.1489,71.3773,42.07240,0.0036117,0.94546015,2.4916,08/17.0/2023,2000,g 10.0,4.0
# From MPEC 2022-L66
C/2020 Q1 (Borisov),e,142.9487,52.3827,9.9681,61.03870,0.0020668,0.97839582,0.0000,08/14.4058/2020,2000,g 14.0,4.0
# From MPEC 2023-CD7
C/2020 Q2 (PANSTARRS),e,3.3360,179.8266,118.2752,10.63828,0.0284052,0.49140015,36.8075,08/17.0/2023,2000,g 12.0,3.2
# From MPEC 2022-X67
C/2020 R2 (PANSTARRS),e,53.2282,195.0933,211.8069,413.6473,0.0001172,0.98865375,0.0000,02/24.9907/2022,2000,g  9.0,4.0
# From MPEC 2022-K19
C/2020 R4 (ATLAS),e,164.4474,323.2702,46.6714,99.78614,0.0009888,0.98971541,0.0000,03/02.2358/2021,2000,g 13.5,4.0
# From MPEC 2021-Y10
C/2020 R6 (Rankin),e,82.8141,12.1793,271.9936,310.1159,0.0001805,0.98989118,0.0000,09/08.2692/2019,2000,g 11.0,4.0
# From MPEC 2023-P65
C/2020 R7 (ATLAS),h,09/16.2529/2022,114.8986,268.2874,347.8420,1.000260,2.955954,2000,7.0,3.2
# From MPEC 2022-ST7
C/2020 S2 (PANSTARRS),e,22.4046,197.6623,202.3575,10.22738,0.0301341,0.82817362,29.1620,08/17.0/2023,2000,g 17.0,4.0
# From MPEC 2022-C56
C/2020 S3 (Erasmus),e,20.0174,222.5979,350.0873,149.9434,0.0005368,0.99735838,0.0000,12/11.8868/2020,2000,g 13.5,3.2
# From MPEC 2023-O39
C/2020 S4 (PANSTARRS),h,02/09.2377/2023,20.5683,117.7177,20.9930,1.001462,3.369728,2000,8.5,3.2
# From MPEC 2021-P47
C/2020 S8 (Lemmon),e,108.5274,24.0693,160.2576,259.5632,0.0002357,0.99090519,0.0000,04/10.7921/2021,2000,g 12.5,4.0
# From MPEC 2022-ST7
C/2020 T2 (Palomar),e,27.8550,82.9645,150.5164,298.0603,0.0001915,0.99309708,0.0000,07/10.9030/2021,2000,g 11.0,3.2
# From MPEC 2021-N06
C/2020 T4 (PANSTARRS),h,07/05.3881/2021,83.8464,50.6165,79.6037,1.000315,2.191077,2000,13.0,3.2
# From MPEC 2021-BE3
C/2020 T5 (Lemmon),e,66.5529,237.8362,90.3437,726.8842,0.0000503,0.99739707,0.0000,10/09.1997/2020,2000,g 16.0,4.0
# From MPEC 2021-W31
C/2020 U3 (Rankin),e,30.1539,282.6280,124.3680,66.73065,0.0018081,0.96586828,1.6666,08/17.0/2023,2000,g 15.0,4.0
# From MPEC 2023-P65
C/2020 U4 (PANSTARRS),h,04/09.3192/2022,167.0192,120.3459,70.0398,1.000576,5.358323,2000,7.0,4.0
# From MPEC 2023-O39
C/2020 U5 (PANSTARRS),e,97.2767,107.3239,75.4373,3638,0.0000045,0.99896750,0.0000,04/27.9691/2022,2000,g  8.0,4.0
# From MPEC 2023-P25
C/2020 V2 (ZTF),h,05/08.5198/2023,131.6121,212.3713,162.4102,1.001243,2.227703,2000,4.9,4.0
# From MPEC 2021-BE3
C/2020 W5 (Lemmon),h,11/30.1500/2020,88.6023,75.4616,24.5102,1.000880,3.365814,2000,15.0,4.0
# From MPEC 2021-U31
C/2020 X2 (ATLAS),e,18.1847,105.4105,347.3892,16.46429,0.0147533,0.76755637,14.8092,08/17.0/2023,2000,g 10.6,4.0
# From MPEC 2021-S45
C/2020 X4 (Leonard),e,80.6097,161.8849,140.3113,40.62292,0.0038067,0.87142633,3.8225,08/17.0/2023,2000,g  9.0,4.0
# From MPEC 2023-P65
C/2020 Y2 (ATLAS),e,101.2934,26.5152,266.2700,2512,0.0000078,0.99875094,0.0000,06/18.3343/2022,2000,g  6.5,4.0
# From MPEC 2021-R75
C/2020 Y3 (ATLAS),e,83.1020,191.4380,341.9341,141.6312,0.0005847,0.98591123,0.0000,12/03.2938/2020,2000,g 13.5,4.0
# From MPEC 2023-CD7
C/2021 A1 (Leonard),h,01/03.2901/2022,132.7221,255.9012,225.1222,1.000039,0.615926,2000,8.5,4.0
# From MPEC 2022-F14
C/2021 A2 (NEOWISE),e,106.9932,125.1827,338.7751,231.1055,0.0002805,0.99389008,0.0000,01/22.3715/2021,2000,g 13.5,4.0
# From MPEC 2022-ED3
C/2021 A4 (NEOWISE),e,111.5408,307.1105,204.7116,42.41566,0.0035679,0.97294162,0.0000,03/19.6831/2021,2000,g 16.0,4.0
# From MPEC 2023-O39
C/2021 A6 (PANSTARRS),e,75.5993,164.0718,351.6268,8853,0.0000012,0.99910470,0.0000,05/03.1314/2021,2000,g  7.0,4.0
# From MPEC 2022-M88
C/2021 A7 (NEOWISE),e,78.1565,154.4962,355.9996,2100,0.0000102,0.99906396,0.0000,07/15.1663/2021,2000,g 10.0,4.0
# From MPEC 2023-KD6
C/2021 A9 (PANSTARRS),h,12/01.7347/2023,158.0162,314.8387,211.4650,1.001739,7.760042,2000,6.0,4.0
# From MPEC 2021-N06
C/2021 A10 (NEOWISE),e,151.9410,188.7068,82.3887,87.48355,0.0012045,0.98556732,0.0000,03/14.9900/2021,2000,g 19.0,4.0
# From MPEC 2022-L66
C/2021 B2 (PANSTARRS),e,38.0845,120.5111,334.9878,366.1806,0.0001407,0.99314084,0.0000,05/04.4244/2021,2000,g 14.0,4.0
# From MPEC 2021-N06
C/2021 B3 (NEOWISE),e,119.4794,67.2825,293.5331,34.39963,0.0048851,0.93717543,4.3457,08/17.0/2023,2000,g 13.5,4.0
# From MPEC 2023-KD6
C/2021 C1 (Rankin),e,143.0446,186.8944,336.2133,6211,0.0000020,0.99944027,0.0000,12/06.8511/2020,2000,g 11.5,4.0
# From MPEC 2021-N06
C/2021 C3 (Catalina),e,122.1661,181.9226,357.0597,61.66673,0.0020353,0.96312418,1.8642,08/17.0/2023,2000,g 14.0,4.0
# From MPEC 2022-M88
C/2021 C4 (ATLAS),e,132.8529,194.2767,320.1789,64879,0.0000001,0.99993063,0.0000,01/16.9812/2021,2000,g  9.0,4.0
# From MPEC 2023-N16
C/2021 C5 (PANSTARRS),e,50.7827,323.6790,270.9231,2143,0.0000099,0.99848741,0.0000,02/11.0650/2023,2000,g  9.0,4.0
# From MPEC 2022-YB4
C/2021 C6 (Lemmon),h,11/13.2428/2021,164.6171,332.2518,203.7475,1.000809,3.276734,2000,12.0,4.0
# From MPEC 2022-F14
C/2021 D1 (SWAN),e,31.4173,311.2220,72.3126,100.6933,0.0009754,0.99103496,0.0000,02/27.7700/2021,2000,g 13.0,4.0
# From MPEC 2023-J29
C/2021 D2 (ZTF),h,02/03.9732/2022,83.8096,305.6743,125.0265,1.001677,2.946240,2000,9.0,4.0
# From MPEC 2023-J29
C/2021 E3 (ZTF),h,06/11.8857/2022,112.5454,104.4786,228.8471,1.000796,1.777301,2000,8.5,4.0
# From MPEC 2022-QD9
C/2021 F1 (Lemmon-PANSTARRS),e,107.3264,203.4530,146.8367,229.3683,0.0002837,0.99565706,0.0000,04/06.8133/2022,2000,g 13.5,4.0
# From MPEC 2021-J72
C/2021 G1 (Leonard),e,131.5472,270.6984,107.4486,73.64931,0.0015594,0.95351614,1.1791,08/17.0/2023,2000,g 14.0,4.0
# From MPEC 2023-OA6
C/2021 G2 (ATLAS),e,48.4746,221.0944,343.3149,9118,0.0000011,0.99945361,0.0000,09/09.5251/2024,2000,g  5.5,4.0
# From MPEC 2022-X67
C/2021 G3 (PANSTARRS),e,102.8725,147.4016,10.5926,278153,0.0000000,0.99998138,0.0000,10/18.0852/2021,2000,g 10.5,4.0
# From MPEC 2022-C56
C/2021 J1 (Maury-Attard),e,92.7194,88.3774,147.3151,26.36572,0.0072802,0.93399214,6.6150,08/17.0/2023,2000,g 15.5,4.0
# From MPEC 2023-KD6
C/2021 J2 (PANSTARRS),e,156.2133,23.3359,172.0061,117.0570,0.0007782,0.95981104,0.5400,08/17.0/2023,2000,g 12.0,4.0
# From MPEC 2022-O08
C/2021 K1 (ATLAS),e,16.2751,140.9075,184.2789,12.66424,0.0218693,0.80265849,18.2583,08/17.0/2023,2000,g 11.0,4.0
# From MPEC 2022-O01
C/2021 K2 (MASTER),h,09/09.4795/2021,100.8650,282.2580,343.3632,1.001097,5.467923,2000,8.0,4.0
# From MPEC 2022-L66
C/2021 K3 (Catalina),h,02/03.2061/2022,134.7858,114.4664,182.0600,1.003553,5.230088,2000,10.0,4.0
# From MPEC 2023-M14
C/2021 L3 (Borisov),h,02/14.2542/2022,78.5749,344.9818,91.6169,1.003783,8.458118,2000,10.1,4.0
# From MPEC 2022-YB4
C/2021 N3 (PANSTARRS),e,26.7416,337.4940,304.7574,150.2595,0.0005351,0.96195013,0.5848,08/17.0/2023,2000,g  8.5,4.0
# From MPEC 2022-A21
C/2021 O1 (Nishimura),e,27.5899,41.6242,74.3829,2394,0.0000084,0.99967202,0.0000,08/14.0668/2021,2000,g 10.5,4.0
# From MPEC 2022-L66
C/2021 O3 (PANSTARRS),h,04/21.0567/2022,56.7944,189.0093,299.9607,1.000053,0.286813,2000,10.5,4.0
# From MPEC 2022-CN4
C/2021 P1 (PANSTARRS),e,51.6366,359.6782,40.4724,2607,0.0000074,0.99832176,0.0000,06/02.4390/2022,2000,g 11.0,4.0
# From MPEC 2023-O39
C/2021 P2 (PANSTARRS),e,150.0635,32.0798,76.7037,2891,0.0000063,0.99824641,0.0000,01/22.8195/2023,2000,g  9.0,4.0
# From MPEC 2023-A50
C/2021 P4 (ATLAS),e,56.3123,348.0880,175.8047,305.5824,0.0001845,0.99646519,0.0000,07/30.3444/2022,2000,g  9.5,4.0
# From MPEC 2023-FK0
C/2021 Q3 (ATLAS),e,77.7563,307.9141,114.1046,75.68703,0.0014968,0.93123057,0.8498,08/17.0/2023,2000,g  8.0,4.0
# From MPEC 2023-OA6
C/2021 Q4 (Fuls),h,06/10.8171/2023,71.4755,183.3317,147.0238,1.003169,7.564723,2000,6.0,4.0
# From MPEC 2023-P65
C/2021 Q6 (PANSTARRS),h,03/24.3358/2024,161.8468,133.5372,140.9828,1.000026,8.708241,2000,6.0,4.0
# From MPEC 2023-FK0
C/2021 QM45 (PANSTARRS),e,22.8212,354.5919,72.8282,370.6736,0.0001381,0.99251718,0.0000,08/13.5320/2022,2000,g 11.0,4.0
# From MPEC 2022-X67
C/2021 R2 (PANSTARRS),e,134.4821,16.2978,32.4589,2786,0.0000067,0.99737415,0.0000,12/27.1131/2021,2000,g  7.5,4.0
# From MPEC 2022-X67
C/2021 R7 (PANSTARRS),e,158.8555,170.1542,140.2823,864.0597,0.0000388,0.99346039,0.0000,04/16.5186/2021,2000,g 10.5,4.0
# From MPEC 2023-J29
C/2021 S1 (ATLAS),h,03/01.1976/2022,52.0669,299.8767,148.2038,1.002176,6.119602,2000,7.0,4.0
# From MPEC 2023-OA6
C/2021 S3 (PANSTARRS),h,02/14.7229/2024,58.5334,215.6212,6.8642,1.000161,1.320104,2000,5.5,4.0
# From MPEC 2023-P65
C/2021 S4 (Tsuchinshan),e,17.4793,5.4931,72.8482,164.7447,0.0004661,0.95939467,359.9356,08/17.0/2023,2000,g  6.5,4.0
# From MPEC 2022-OB6
C/2021 T1 (Lemmon),e,140.3569,56.8267,51.5512,1423,0.0000184,0.99784932,0.0000,10/14.1644/2021,2000,g 12.5,4.0
# From MPEC 2023-A50
C/2021 T2 (Fuls),h,06/07.9365/2022,117.5387,223.2340,263.5991,1.000409,1.247595,2000,12.0,4.0
# From MPEC 2023-P25
C/2021 T4 (Lemmon),e,160.7769,257.8847,329.8219,9681,0.0000010,0.99984679,0.0000,07/31.5382/2023,2000,g  7.5,4.0
# From MPEC 2021-W31
C/2021 U4 (Leonard),e,152.8847,241.8087,237.3114,44.92935,0.0032727,0.96019293,1.9736,08/17.0/2023,2000,g 17.0,4.0
# From MPEC 2022-WQ9
C/2021 U5 (Catalina),e,39.0489,182.7510,321.4343,216.5024,0.0003094,0.98909053,0.0000,01/26.5836/2022,2000,g 13.0,4.0
# From MPEC 2022-CN4
C/2021 V1 (Rankin),e,71.4541,207.6528,195.1432,617.7299,0.0000642,0.99512024,0.0000,04/30.4660/2022,2000,g 13.0,4.0
# From MPEC 2023-P25
C/2021 X1 (Maury-Attard),h,05/27.2480/2023,140.1065,10.5927,334.5816,1.001191,3.233494,2000,7.0,4.0
# From MPEC 2023-N01
C/2021 Y1 (ATLAS),h,04/30.7146/2023,77.1910,244.7697,245.8213,1.000875,2.032412,2000,7.0,4.0
# From MPEC 2022-YN2
C/2022 A1 (Sarneczky),e,116.5138,285.5211,201.2256,348.4600,0.0001515,0.99640348,0.0000,01/31.1023/2022,2000,g 18.0,4.0
# From MPEC 2023-P65
